{
  "64797": {
    "noradId": "64797",
    "tle": [
      "1 64797C 25150H   25272.06368056  .00026435  00000+0  60379-3 0  2729",
      "2 64797  70.0017 195.2735 0003566 264.1046 135.4389 15.42675881    16"
    ]
  },
  "64798": {
    "noradId": "64798",
    "tle": [
      "1 64798C 25150J   25272.06229167  .00018429  00000+0  42069-3 0  2729",
      "2 64798  70.0013 195.4553 0003570 276.7479 318.0558 15.42700957    17"
    ]
  },
  "64799": {
    "noradId": "64799",
    "tle": [
      "1 64799C 25150K   25272.06576389  .00020638  00000+0  47129-3 0  2728",
      "2 64799  70.0016 195.4986 0003358 280.8734 287.2362 15.42687607    11"
    ]
  },
  "64800": {
    "noradId": "64800",
    "tle": [
      "1 64800C 25150L   25272.06645833  .00013600  00000+0  31071-3 0  2722",
      "2 64800  70.0015 195.3928 0003586 274.8401  28.1675 15.42681411    11"
    ]
  },
  "64801": {
    "noradId": "64801",
    "tle": [
      "1 64801C 25150M   25272.06020833  .00014992  00000+0  34249-3 0  2725",
      "2 64801  70.0016 195.3587 0003479 266.3080  46.9586 15.42681788    10"
    ]
  },
  "64802": {
    "noradId": "64802",
    "tle": [
      "1 64802C 25150N   25272.06645833  .00030246  00000+0  69087-3 0  2727",
      "2 64802  70.0014 195.2400 0003559 262.1187 174.8673 15.42669598    16"
    ]
  },
  "64803": {
    "noradId": "64803",
    "tle": [
      "1 64803C 25150P   25272.05951389  .00033320  00000+0  76099-3 0  2720",
      "2 64803  70.0013 195.2074 0003321 263.8401 179.5628 15.42671946    19"
    ]
  },
  "64804": {
    "noradId": "64804",
    "tle": [
      "1 64804C 25150Q   25272.06090278  .00022684  00000+0  51803-3 0  2720",
      "2 64804  70.0012 195.1522 0003769 281.4104 214.7223 15.42683502    12"
    ]
  },
  "64805": {
    "noradId": "64805",
    "tle": [
      "1 64805C 25150R   25272.05951389  .00024493  00000+0  55961-3 0  2728",
      "2 64805  70.0017 195.3723 0003535 264.6336  33.7943 15.42668314    16"
    ]
  },
  "64806": {
    "noradId": "64806",
    "tle": [
      "1 64806C 25150S   25272.06645833 -.00020998  00000+0 -47924-3 0  2722",
      "2 64806  70.0015 195.2911 0003414 272.1938 119.6831 15.42746486    18"
    ]
  },
  "64807": {
    "noradId": "64807",
    "tle": [
      "1 64807C 25150T   25272.06576389  .00022206  00000+0  50691-3 0  2729",
      "2 64807  70.0015 195.4065 0003444 274.5587  13.5300 15.42697470    11"
    ]
  },
  "64808": {
    "noradId": "64808",
    "tle": [
      "1 64808C 25150U   25272.06506944  .00030370  00000+0  69378-3 0  2723",
      "2 64808  70.0015 195.2817 0003484 262.1279 133.1306 15.42667572    15"
    ]
  },
  "64809": {
    "noradId": "64809",
    "tle": [
      "1 64809C 25150V   25272.06298611 -.00021669  00000+0 -49552-3 0  2728",
      "2 64809  70.0015 195.4660 0003233 271.3227 315.4591 15.42689816    17"
    ]
  },
  "64810": {
    "noradId": "64810",
    "tle": [
      "1 64810C 25150W   25272.06298611  .00002562  00000+0  58550-4 0  2728",
      "2 64810  70.0013 195.4396 0003424 260.1673 349.5555 15.42687433    17"
    ]
  },
  "64811": {
    "noradId": "64811",
    "tle": [
      "1 64811C 25150X   25272.06576389  .00016495  00000+0  37646-3 0  2722",
      "2 64811  70.0017 195.2537 0003649 277.3977 144.6850 15.42708256    12"
    ]
  },
  "64812": {
    "noradId": "64812",
    "tle": [
      "1 64812C 25150Y   25272.06645833  .00007520  00000+0  17164-3 0  2726",
      "2 64812  69.9999 193.9527 0003422 277.9170 197.2082 15.42717518    15"
    ]
  },
  "64813": {
    "noradId": "64813",
    "tle": [
      "1 64813C 25150Z   25272.06576389  .00030978  00000+0  70756-3 0  2725",
      "2 64813  70.0014 195.1769 0003429 266.2923 222.8134 15.42671473    15"
    ]
  },
  "64814": {
    "noradId": "64814",
    "tle": [
      "1 64814C 25150AA  25272.05951389  .00030906  00000+0  70576-3 0  2723",
      "2 64814  70.0014 195.1428 0003391 270.0212 229.3763 15.42678427    16"
    ]
  },
  "64815": {
    "noradId": "64815",
    "tle": [
      "1 64815C 25150AB  25272.06645833  .00031191  00000+0  71237-3 0  2721",
      "2 64815  70.0014 195.1489 0003416 266.2643 249.6958 15.42673477    18"
    ]
  },
  "64842": {
    "noradId": "64842",
    "tle": [
      "1 64842C 25152A   25272.06020833 -.00008119  00000+0 -56362-3 0  2728",
      "2 64842  97.6047 126.1201 0003111  71.1783 258.2031 15.05664368    11"
    ]
  },
  "64843": {
    "noradId": "64843",
    "tle": [
      "1 64843C 25152B   25272.06229167 -.00005114  00000+0 -39054-3 0  2721",
      "2 64843  97.6047 126.5355 0001688  90.6225 129.9909 15.02077105    12"
    ]
  },
  "64844": {
    "noradId": "64844",
    "tle": [
      "1 64844C 25152C   25272.06020833 -.00001975  00000+0 -13711-3 0  2724",
      "2 64844  97.6032 126.1522 0002285  88.9746 315.4100 15.05653683    10"
    ]
  },
  "64845": {
    "noradId": "64845",
    "tle": [
      "1 64845C 25152D   25272.06576389 -.00003164  00000+0 -21969-3 0  2723",
      "2 64845  97.6043 126.1330 0002218  89.0514 285.4323 15.05654539    15"
    ]
  },
  "64846": {
    "noradId": "64846",
    "tle": [
      "1 64846C 25152E   25272.06437500 -.00004722  00000+0 -36061-3 0  2725",
      "2 64846  97.6028 126.3737 0001498  78.9803 141.6333 15.02076977    14"
    ]
  },
  "64847": {
    "noradId": "64847",
    "tle": [
      "1 64847C 25152F   25272.06229167  .00000522  00000+0  36236-4 0  2721",
      "2 64847  97.6027 126.2019 0002139  86.0512  74.6022 15.05647809    17"
    ]
  },
  "64848": {
    "noradId": "64848",
    "tle": [
      "1 64848C 25152G   25272.06784722 -.00004337  00000+0 -30113-3 0  2722",
      "2 64848  97.6043 126.2370 0001597  83.1061 182.6296 15.05655214    12"
    ]
  },
  "64849": {
    "noradId": "64849",
    "tle": [
      "1 64849C 25152H   25272.06090278  .00005727  00000+0  43742-3 0  2723",
      "2 64849  97.6019 127.2299 0002699  79.3179 299.2184 15.02052951    15"
    ]
  },
  "64850": {
    "noradId": "64850",
    "tle": [
      "1 64850C 25152J   25272.06576389 -.00000627  00000+0 -43509-4 0  2725",
      "2 64850  97.6030 126.1760 0002716  82.2804  37.1949 15.05651999    17"
    ]
  },
  "64851": {
    "noradId": "64851",
    "tle": [
      "1 64851C 25152K   25272.06368056 -.00011407  00000+0 -79166-3 0  2721",
      "2 64851  97.6034 126.1493 0003027  86.9293 321.1869 15.05680816    11"
    ]
  },
  "64852": {
    "noradId": "64852",
    "tle": [
      "1 64852C 25152L   25272.06576389 -.00002006  00000+0 -13928-3 0  2721",
      "2 64852  97.6027 126.1919 0001742  86.0397  63.4267 15.05653638    15"
    ]
  },
  "64853": {
    "noradId": "64853",
    "tle": [
      "1 64853C 25152M   25272.06368056 -.00002475  00000+0 -17184-3 0  2720",
      "2 64853  97.6037 126.1426 0002309  85.4468 307.7461 15.05654501    12"
    ]
  },
  "64854": {
    "noradId": "64854",
    "tle": [
      "1 64854C 25152N   25272.06368056 -.00003070  00000+0 -23440-3 0  2725",
      "2 64854  97.6033 126.5190 0001593  65.7720 121.9192 15.02076675    11"
    ]
  },
  "64855": {
    "noradId": "64855",
    "tle": [
      "1 64855C 25152P   25272.06159722 -.00006011  00000+0 -41732-3 0  2726",
      "2 64855  97.6029 126.1802 0002145  92.1919  19.6787 15.05662111    13"
    ]
  },
  "64856": {
    "noradId": "64856",
    "tle": [
      "1 64856C 25152Q   25272.06437500 -.00002645  00000+0 -20198-3 0  2722",
      "2 64856  97.6030 126.6477 0001509  91.4327  33.1347 15.02076513    12"
    ]
  },
  "64857": {
    "noradId": "64857",
    "tle": [
      "1 64857C 25152R   25272.06159722  .00007102  00000+0  54249-3 0  2725",
      "2 64857  97.6033 126.5866 0002063  90.4192 247.1961 15.02052086    10"
    ]
  },
  "64858": {
    "noradId": "64858",
    "tle": [
      "1 64858C 25152S   25272.06159722 -.00040456  00000+0 -28690-2 0  2727",
      "2 64858  97.6024 126.3081 0002518  87.6010 322.8835 15.04902388    12"
    ]
  },
  "64859": {
    "noradId": "64859",
    "tle": [
      "1 64859C 25152T   25272.06020833 -.00003874  00000+0 -26894-3 0  2726",
      "2 64859  97.6046 126.2689 0001679  95.2985 219.0148 15.05662014    17"
    ]
  },
  "64860": {
    "noradId": "64860",
    "tle": [
      "1 64860C 25152U   25272.06506944 -.00003300  00000+0 -25198-3 0  2720",
      "2 64860  97.6031 126.6359 0001728  92.8601   5.1910 15.02078315    17"
    ]
  },
  "64861": {
    "noradId": "64861",
    "tle": [
      "1 64861C 25152V   25272.06229167  .00002079  00000+0  15875-3 0  2721",
      "2 64861  97.6023 127.4199 0001762  82.0525  20.9625 15.02077182    13"
    ]
  },
  "64862": {
    "noradId": "64862",
    "tle": [
      "1 64862C 25152W   25272.05951389 -.00000410  00000+0 -31281-4 0  2728",
      "2 64862  97.6030 126.6126 0002755  84.7515 301.6959 15.02074767    19"
    ]
  },
  "64863": {
    "noradId": "64863",
    "tle": [
      "1 64863C 25152X   25272.06645833  .00006886  00000+0  52607-3 0  2729",
      "2 64863  97.6038 126.5857 0002871  93.6349 251.8024 15.02042877    17"
    ]
  },
  "64864": {
    "noradId": "64864",
    "tle": [
      "1 64864C 25152Y   25272.06020833 -.00003025  00000+0 -21002-3 0  2726",
      "2 64864  97.6034 126.2198 0001622  77.1523 117.2099 15.05653836    16"
    ]
  },
  "64865": {
    "noradId": "64865",
    "tle": [
      "1 64865C 25152Z   25272.06159722  .00008619  00000+0  59876-3 0  2729",
      "2 64865  97.6044 126.2377 0001943  87.3130 159.5436 15.05622323    11"
    ]
  },
  "64904": {
    "noradId": "64904",
    "tle": [
      "1 64904C 25157A   25272.06437500 -.00015135  00000+0 -37774-3 0  2727",
      "2 64904  53.1584  25.4397 0001110  78.7335 190.5336 15.39625284    10"
    ]
  },
  "64905": {
    "noradId": "64905",
    "tle": [
      "1 64905C 25157B   25272.06159722 -.00025393  00000+0 -63399-3 0  2724",
      "2 64905  53.1597  25.0924 0001337 100.3182 333.8373 15.39623280    17"
    ]
  }
}